start=new Date('2023-06-28T00:00:00.000Z').valueOf();
sats=[{"TLE_LINE2":"2 48142  53.0529 258.9927 0000976 102.5975 257.5123 15.06398006123658","SEMIMAJOR_AXIS":"6925.355","NORAD_CAT_ID":"48142","GP_ID":"234585161","ECCENTRICITY":"0.00009760","MEAN_MOTION":"15.06398006","MEAN_MOTION_DOT":"0.00017978","APOAPSIS":"547.896","OBJECT_NAME":"STARLINK-2485","ARG_OF_PERICENTER":"102.5975","MEAN_ELEMENT_THEORY":"SGP4","LAUNCH_DATE":"2021-04-07","TIME_SYSTEM":"UTC","TLE_LINE1":"1 48142U 21027BC  23178.45589604  .00017978  00000-0  12228-2 0  9992","COUNTRY_CODE":"US","BSTAR":"0.00122280000000","OBJECT_TYPE":"PAYLOAD","RCS_SIZE":"LARGE","MEAN_ANOMALY":"257.5123","FILE":"3944129","REF_FRAME":"TEME","RA_OF_ASC_NODE":"258.9927","DECAY_DATE":null,"INCLINATION":"53.0529","PERIAPSIS":"546.544","CLASSIFICATION_TYPE":"U","PERIOD":"95.592","ELEMENT_SET_NO":"999","EPOCH":"2023-06-27T10:56:29.417856","MEAN_MOTION_DDOT":"0.0000000000000","CENTER_NAME":"EARTH","EPHEMERIS_TYPE":"0","REV_AT_EPOCH":"12365","OBJECT_ID":"2021-027BC","SITE":"AFETR"},{"SEMIMAJOR_AXIS":"6925.353","NORAD_CAT_ID":"48143","GP_ID":"234576482","TLE_LINE2":"2 48143  53.0526 216.7528 0001201  91.9056 268.2070 15.06398587124181","ECCENTRICITY":"0.00012010","MEAN_MOTION":"15.06398587","MEAN_MOTION_DOT":"0.00006057","APOAPSIS":"548.050","MEAN_ELEMENT_THEORY":"SGP4","OBJECT_NAME":"STARLINK-2486","ARG_OF_PERICENTER":"91.9056","LAUNCH_DATE":"2021-04-07","COUNTRY_CODE":"US","TIME_SYSTEM":"UTC","TLE_LINE1":"1 48143U 21027BD  23177.84169089  .00006057  00000-0  42519-3 0  9999","RCS_SIZE":"LARGE","MEAN_ANOMALY":"268.2070","BSTAR":"0.00042519000000","OBJECT_TYPE":"PAYLOAD","FILE":"3943762","REF_FRAME":"TEME","DECAY_DATE":null,"RA_OF_ASC_NODE":"216.7528","CLASSIFICATION_TYPE":"U","INCLINATION":"53.0526","PERIAPSIS":"546.386","ELEMENT_SET_NO":"999","PERIOD":"95.592","CENTER_NAME":"EARTH","EPOCH":"2023-06-26T20:12:02.092896","MEAN_MOTION_DDOT":"0.0000000000000","OBJECT_ID":"2021-027BD","SITE":"AFETR","EPHEMERIS_TYPE":"0","REV_AT_EPOCH":"12418"},{"TLE_LINE2":"2 48144  53.0526 262.8380 0001061  98.1676 261.9434 15.06372496123523","NORAD_CAT_ID":"48144","GP_ID":"234569665","SEMIMAJOR_AXIS":"6925.433","MEAN_MOTION":"15.06372496","ECCENTRICITY":"0.00010610","MEAN_MOTION_DOT":"0.00023574","APOAPSIS":"548.033","OBJECT_NAME":"STARLINK-2487","ARG_OF_PERICENTER":"98.1676","MEAN_ELEMENT_THEORY":"SGP4","LAUNCH_DATE":"2021-04-07","TLE_LINE1":"1 48144U 21027BE  23177.60074488  .00023574  00000-0  15974-2 0  9999","TIME_SYSTEM":"UTC","COUNTRY_CODE":"US","OBJECT_TYPE":"PAYLOAD","BSTAR":"0.00159740000000","MEAN_ANOMALY":"261.9434","RCS_SIZE":"LARGE","REF_FRAME":"TEME","FILE":"3943485","RA_OF_ASC_NODE":"262.8380","DECAY_DATE":null,"PERIAPSIS":"546.563","INCLINATION":"53.0526","CLASSIFICATION_TYPE":"U","ELEMENT_SET_NO":"999","PERIOD":"95.594","MEAN_MOTION_DDOT":"0.0000000000000","EPOCH":"2023-06-26T14:25:04.357632","CENTER_NAME":"EARTH","REV_AT_EPOCH":"12352","EPHEMERIS_TYPE":"0","SITE":"AFETR","OBJECT_ID":"2021-027BE"},{"CENTER_NAME":"EARTH","EPOCH":"2023-06-27T11:12:24.063552","MEAN_MOTION_DDOT":"0.0000000000000","OBJECT_ID":"2021-027BF","SITE":"AFETR","EPHEMERIS_TYPE":"0","REV_AT_EPOCH":"12365","ELEMENT_SET_NO":"999","PERIOD":"95.592","DECAY_DATE":null,"RA_OF_ASC_NODE":"258.9447","CLASSIFICATION_TYPE":"U","INCLINATION":"53.0539","PERIAPSIS":"546.479","FILE":"3944130","REF_FRAME":"TEME","COUNTRY_CODE":"US","TIME_SYSTEM":"UTC","TLE_LINE1":"1 48145U 21027BF  23178.46694518  .00017415  00000-0  11850-2 0  9993","MEAN_ANOMALY":"254.5115","RCS_SIZE":"LARGE","BSTAR":"0.00118500000000","OBJECT_TYPE":"PAYLOAD","MEAN_ELEMENT_THEORY":"SGP4","ARG_OF_PERICENTER":"105.5989","OBJECT_NAME":"STARLINK-2488","LAUNCH_DATE":"2021-04-07","MEAN_MOTION_DOT":"0.00017415","APOAPSIS":"547.925","SEMIMAJOR_AXIS":"6925.337","NORAD_CAT_ID":"48145","GP_ID":"234585170","TLE_LINE2":"2 48145  53.0539 258.9447 0001044 105.5989 254.5115 15.06403838123652","ECCENTRICITY":"0.00010440","MEAN_MOTION":"15.06403838"},{"BSTAR":"0.00175030000000","OBJECT_TYPE":"PAYLOAD","RCS_SIZE":"LARGE","MEAN_ANOMALY":"252.8400","TIME_SYSTEM":"UTC","TLE_LINE1":"1 48146U 21027BG  23177.73528792  .00025863  00000-0  17503-2 0  9990","COUNTRY_CODE":"US","LAUNCH_DATE":"2021-04-07","OBJECT_NAME":"STARLINK-2489","ARG_OF_PERICENTER":"107.2712","MEAN_ELEMENT_THEORY":"SGP4","APOAPSIS":"548.087","MEAN_MOTION_DOT":"0.00025863","ECCENTRICITY":"0.00011220","MEAN_MOTION":"15.06368536","TLE_LINE2":"2 48146  53.0538 282.2324 0001122 107.2712 252.8400 15.06368536123266","SEMIMAJOR_AXIS":"6925.445","GP_ID":"234578358","NORAD_CAT_ID":"48146","EPHEMERIS_TYPE":"0","REV_AT_EPOCH":"12326","OBJECT_ID":"2021-027BG","SITE":"AFETR","EPOCH":"2023-06-26T17:38:48.876288","MEAN_MOTION_DDOT":"0.0000000000000","CENTER_NAME":"EARTH","ELEMENT_SET_NO":"999","PERIOD":"95.594","INCLINATION":"53.0538","PERIAPSIS":"546.533","CLASSIFICATION_TYPE":"U","RA_OF_ASC_NODE":"282.2324","DECAY_DATE":null,"FILE":"3943835","REF_FRAME":"TEME"},{"GP_ID":"234592985","NORAD_CAT_ID":"48147","SEMIMAJOR_AXIS":"6925.301","TLE_LINE2":"2 48147  53.0543 283.0706 0000960  99.6557 260.4540 15.06415575123330","MEAN_MOTION":"15.06415575","ECCENTRICITY":"0.00009600","MEAN_MOTION_DOT":"0.00024005","APOAPSIS":"547.831","MEAN_ELEMENT_THEORY":"SGP4","ARG_OF_PERICENTER":"99.6557","OBJECT_NAME":"STARLINK-2490","LAUNCH_DATE":"2021-04-07","COUNTRY_CODE":"US","TLE_LINE1":"1 48147U 21027BH  23178.66184025  .00024005  00000-0  16243-2 0  9998","TIME_SYSTEM":"UTC","RCS_SIZE":"LARGE","MEAN_ANOMALY":"260.4540","OBJECT_TYPE":"PAYLOAD","BSTAR":"0.00162430000000","REF_FRAME":"TEME","FILE":"3944441","DECAY_DATE":null,"RA_OF_ASC_NODE":"283.0706","CLASSIFICATION_TYPE":"U","PERIAPSIS":"546.501","INCLINATION":"53.0543","ELEMENT_SET_NO":"999","PERIOD":"95.591","CENTER_NAME":"EARTH","MEAN_MOTION_DDOT":"0.0000000000000","EPOCH":"2023-06-27T15:53:02.997600","SITE":"AFETR","OBJECT_ID":"2021-027BH","REV_AT_EPOCH":"12333","EPHEMERIS_TYPE":"0"},{"PERIOD":"95.592","ELEMENT_SET_NO":"999","REV_AT_EPOCH":"12336","EPHEMERIS_TYPE":"0","SITE":"AFETR","OBJECT_ID":"2021-027BJ","MEAN_MOTION_DDOT":"0.0000000000000","EPOCH":"2023-06-27T10:21:59.178816","CENTER_NAME":"EARTH","REF_FRAME":"TEME","FILE":"3944151","PERIAPSIS":"546.380","INCLINATION":"53.0531","CLASSIFICATION_TYPE":"U","RA_OF_ASC_NODE":"279.1045","DECAY_DATE":null,"LAUNCH_DATE":"2021-04-07","OBJECT_NAME":"STARLINK-2491","ARG_OF_PERICENTER":"102.6542","MEAN_ELEMENT_THEORY":"SGP4","OBJECT_TYPE":"PAYLOAD","BSTAR":"0.00158510000000","RCS_SIZE":"LARGE","MEAN_ANOMALY":"257.4579","TLE_LINE1":"1 48148U 21027BJ  23178.43193494  .00023411  00000-0  15851-2 0  9998","TIME_SYSTEM":"UTC","COUNTRY_CODE":"US","MEAN_MOTION":"15.06405165","ECCENTRICITY":"0.00011810","TLE_LINE2":"2 48148  53.0531 279.1045 0001181 102.6542 257.4579 15.06405165123360","NORAD_CAT_ID":"48148","GP_ID":"234585193","SEMIMAJOR_AXIS":"6925.333","APOAPSIS":"548.016","MEAN_MOTION_DOT":"0.00023411"},{"REV_AT_EPOCH":"12350","EPHEMERIS_TYPE":"0","SITE":"AFETR","OBJECT_ID":"2021-027BK","MEAN_MOTION_DDOT":"0.0000000000000","EPOCH":"2023-06-26T12:22:59.672352","CENTER_NAME":"EARTH","PERIOD":"95.595","ELEMENT_SET_NO":"999","INCLINATION":"53.0529","PERIAPSIS":"546.537","CLASSIFICATION_TYPE":"U","RA_OF_ASC_NODE":"263.2125","DECAY_DATE":null,"REF_FRAME":"TEME","FILE":"3943583","OBJECT_TYPE":"PAYLOAD","BSTAR":"0.00120240000000","MEAN_ANOMALY":"250.8110","RCS_SIZE":"LARGE","TLE_LINE1":"1 48149U 21027BK  23177.51596843  .00017656  00000-0  12024-2 0  9995","TIME_SYSTEM":"UTC","COUNTRY_CODE":"US","LAUNCH_DATE":"2021-04-07","OBJECT_NAME":"STARLINK-2492","ARG_OF_PERICENTER":"109.3002","MEAN_ELEMENT_THEORY":"SGP4","APOAPSIS":"548.118","MEAN_MOTION_DOT":"0.00017656","MEAN_MOTION":"15.06362799","ECCENTRICITY":"0.00011410","TLE_LINE2":"2 48149  53.0529 263.2125 0001141 109.3002 250.8110 15.06362799123501","GP_ID":"234572394","NORAD_CAT_ID":"48149","SEMIMAJOR_AXIS":"6925.463"},{"PERIOD":"95.593","ELEMENT_SET_NO":"999","SITE":"AFETR","OBJECT_ID":"2021-027BL","REV_AT_EPOCH":"12366","EPHEMERIS_TYPE":"0","CENTER_NAME":"EARTH","MEAN_MOTION_DDOT":"0.0000000000000","EPOCH":"2023-06-27T12:21:24.435360","REF_FRAME":"TEME","FILE":"3944518","CLASSIFICATION_TYPE":"U","INCLINATION":"53.0534","PERIAPSIS":"546.583","DECAY_DATE":null,"RA_OF_ASC_NODE":"258.7317","LAUNCH_DATE":"2021-04-07","MEAN_ELEMENT_THEORY":"SGP4","ARG_OF_PERICENTER":"105.5029","OBJECT_NAME":"STARLINK-2493","MEAN_ANOMALY":"254.6064","RCS_SIZE":"LARGE","OBJECT_TYPE":"PAYLOAD","BSTAR":"0.00096946000000","COUNTRY_CODE":"US","TLE_LINE1":"1 48150U 21027BL  23178.51486615  .00014185  00000-0  96946-3 0  9993","TIME_SYSTEM":"UTC","MEAN_MOTION":"15.06392431","ECCENTRICITY":"0.00009440","GP_ID":"234594792","NORAD_CAT_ID":"48150","SEMIMAJOR_AXIS":"6925.372","TLE_LINE2":"2 48150  53.0534 258.7317 0000944 105.5029 254.6064 15.06392431123661","APOAPSIS":"547.891","MEAN_MOTION_DOT":"0.00014185"},{"PERIOD":"95.593","ELEMENT_SET_NO":"999","OBJECT_ID":"2021-027BM","SITE":"AFETR","EPHEMERIS_TYPE":"0","REV_AT_EPOCH":"12365","CENTER_NAME":"EARTH","EPOCH":"2023-06-27T10:51:10.707264","MEAN_MOTION_DDOT":"0.0000000000000","FILE":"3944134","REF_FRAME":"TEME","CLASSIFICATION_TYPE":"U","PERIAPSIS":"546.544","INCLINATION":"53.0538","DECAY_DATE":null,"RA_OF_ASC_NODE":"259.0105","LAUNCH_DATE":"2021-04-07","MEAN_ELEMENT_THEORY":"SGP4","ARG_OF_PERICENTER":"104.7225","OBJECT_NAME":"STARLINK-2503","MEAN_ANOMALY":"255.3875","RCS_SIZE":"LARGE","BSTAR":"0.00091592000000","OBJECT_TYPE":"PAYLOAD","COUNTRY_CODE":"US","TIME_SYSTEM":"UTC","TLE_LINE1":"1 48151U 21027BM  23178.45220726  .00013385  00000-0  91592-3 0  9999","ECCENTRICITY":"0.00009970","MEAN_MOTION":"15.06393167","SEMIMAJOR_AXIS":"6925.370","GP_ID":"234585539","NORAD_CAT_ID":"48151","TLE_LINE2":"2 48151  53.0538 259.0105 0000997 104.7225 255.3875 15.06393167123656","APOAPSIS":"547.925","MEAN_MOTION_DOT":"0.00013385"}];
